{
  "type": "FeatureCollection",
  "crs": {
    "type": "name",
    "properties": {
      "name": "urn:ogc:def:crs:OGC:1.3:CRS84"
    }
  },
  "features": [
    {
      "type": "Feature",
      "id": "001",
      "properties": {
        "county_code": "001",
        "county_name": "Mombasa",
        "asal_category": "Non-ASAL",
        "latitude": -4.0435,
        "longitude": 39.6682
      },
      "geometry": {
        "type": "Polygon",
        "coordinates": [
          [
            [
              39.18382705610778,
              -3.5053828254238026
            ],
            [
              39.18479839513662,
              -3.5038028304569013
            ],
            [
              41.95,
              -4.755098076201214
            ],
            [
              41.95,
              -4.8
            ],
            [
              40.00013432080925,
              -4.8
            ],
            [
              39.18382705610778,
              -3.5053828254238026
            ]
          ]
        ]
      }
    },
    {
      "type": "Feature",
      "id": "002",
      "properties": {
        "county_code": "002",
        "county_name": "Kwale",
        "asal_category": "Semi-Arid",
        "latitude": -4.1744,
        "longitude": 39.4606
      },
      "geometry": {
        "type": "Polygon",
        "coordinates": [
          [
            [
              40.00013432080925,
              -4.8
            ],
            [
              38.04486649753998,
              -4.8
            ],
            [
              39.18382705610778,
              -3.5053828254238026
            ],
            [
              40.00013432080925,
              -4.8
            ]
          ]
        ]
      }
    },
    {
      "type": "Feature",
      "id": "003",
      "properties": {
        "county_code": "003",
        "county_name": "Kilifi",
        "asal_category": "Semi-Arid",
        "latitude": -3.5107,
        "longitude": 39.9093
      },
      "geometry": {
        "type": "Polygon",
        "coordinates": [
          [
            [
              41.95,
              -4.128549673123485
            ],
            [
              41.95,
              -4.755098076201214
            ],
            [
              39.18479839513662,
              -3.5038028304569013
            ],
            [
              39.31722405689357,
              -2.534564032715738
            ],
            [
              39.9196558804414,
              -2.501816333748324
            ],
            [
              41.95,
              -4.128549673123485
            ]
          ]
        ]
      }
    },
    {
      "type": "Feature",
      "id": "004",
      "properties": {
        "county_code": "004",
        "county_name": "Tana River",
        "asal_category": "Arid",
        "latitude": -1.5,
        "longitude": 39.8
      },
      "geometry": {
        "type": "Polygon",
        "coordinates": [
          [
            [
              41.13286850983568,
              -0.7693292045627511
            ],
            [
              39.9196558804414,
              -2.501816333748324
            ],
            [
              39.31722405689357,
              -2.534564032715738
            ],
            [
              38.85201075909054,
              -2.1977128204416405
            ],
            [
              38.92940864789894,
              -1.0932807452124123
            ],
            [
              41.13286850983568,
              -0.7693292045627511
            ]
          ]
        ]
      }
    },
    {
      "type": "Feature",
      "id": "005",
      "properties": {
        "county_code": "005",
        "county_name": "Lamu",
        "asal_category": "Semi-Arid",
        "latitude": -2.2717,
        "longitude": 40.902
      },
      "geometry": {
        "type": "Polygon",
        "coordinates": [
          [
            [
              39.9196558804414,
              -2.501816333748324
            ],
            [
              41.13286850983568,
              -0.7693292045627511
            ],
            [
              41.95,
              -0.20499847126752221
            ],
            [
              41.95,
              -4.128549673123485
            ],
            [
              39.9196558804414,
              -2.501816333748324
            ]
          ]
        ]
      }
    },
    {
      "type": "Feature",
      "id": "006",
      "properties": {
        "county_code": "006",
        "county_name": "Taita Taveta",
        "asal_category": "Semi-Arid",
        "latitude": -3.3161,
        "longitude": 38.485
      },
      "geometry": {
        "type": "Polygon",
        "coordinates": [
          [
            [
              38.85201075909054,
              -2.1977128204416405
            ],
            [
              39.31722405689357,
              -2.534564032715738
            ],
            [
              39.18479839513662,
              -3.5038028304569013
            ],
            [
              39.18382705610778,
              -3.5053828254238026
            ],
            [
              38.04486649753998,
              -4.8
            ],
            [
              35.933885966755234,
              -4.8
            ],
            [
              37.497577096131856,
              -2.8772575376717677
            ],
            [
              38.56232976890701,
              -2.268495546036833
            ],
            [
              38.85201075909054,
              -2.1977128204416405
            ]
          ]
        ]
      }
    },
    {
      "type": "Feature",
      "id": "007",
      "properties": {
        "county_code": "007",
        "county_name": "Garissa",
        "asal_category": "Arid",
        "latitude": -0.4532,
        "longitude": 39.6461
      },
      "geometry": {
        "type": "Polygon",
        "coordinates": [
          [
            [
              41.13286850983568,
              -0.7693292045627511
            ],
            [
              38.92940864789894,
              -1.0932807452124123
            ],
            [
              38.72605617462311,
              -0.7323267946560723
            ],
            [
              38.8354931204461,
              0.5162237265272445
            ],
            [
              38.95243567694312,
              0.8150077601422481
            ],
            [
              41.95,
              0.25481212789164936
            ],
            [
              41.95,
              -0.20499847126752221
            ],
            [
              41.13286850983568,
              -0.7693292045627511
            ]
          ]
        ]
      }
    },
    {
      "type": "Feature",
      "id": "008",
      "properties": {
        "county_code": "008",
        "county_name": "Wajir",
        "asal_category": "Arid",
        "latitude": 1.7471,
        "longitude": 40.0573
      },
      "geometry": {
        "type": "Polygon",
        "coordinates": [
          [
            [
              38.95243567694312,
              0.8150077601422481
            ],
            [
              38.76751455100774,
              1.1436959316342836
            ],
            [
              39.576008267671334,
              3.976988001780056
            ],
            [
              41.95,
              2.0263736645055204
            ],
            [
              41.95,
              0.25481212789164936
            ],
            [
              38.95243567694312,
              0.8150077601422481
            ]
          ]
        ]
      }
    },
    {
      "type": "Feature",
      "id": "009",
      "properties": {
        "county_code": "009",
        "county_name": "Mandera",
        "asal_category": "Arid",
        "latitude": 3.9373,
        "longitude": 41.8569
      },
      "geometry": {
        "type": "Polygon",
        "coordinates": [
          [
            [
              39.576008267671334,
              3.976988001780056
            ],
            [
              38.96630740075003,
              5.45
            ],
            [
              41.95,
              5.45
            ],
            [
              41.95,
              2.0263736645055204
            ],
            [
              39.576008267671334,
              3.976988001780056
            ]
          ]
        ]
      }
    },
    {
      "type": "Feature",
      "id": "010",
      "properties": {
        "county_code": "010",
        "county_name": "Marsabit",
        "asal_category": "Arid",
        "latitude": 2.3369,
        "longitude": 37.9904
      },
      "geometry": {
        "type": "Polygon",
        "coordinates": [
          [
            [
              37.683566532797855,
              5.45
            ],
            [
              38.96630740075003,
              5.45
            ],
            [
              39.576008267671334,
              3.976988001780056
            ],
            [
              38.76751455100774,
              1.1436959316342836
            ],
            [
              37.80806708213074,
              1.3412676699158708
            ],
            [
              36.728812151962025,
              2.523294598679183
            ],
            [
              37.683566532797855,
              5.45
            ]
          ]
        ]
      }
    },
    {
      "type": "Feature",
      "id": "011",
      "properties": {
        "county_code": "011",
        "county_name": "Isiolo",
        "asal_category": "Arid",
        "latitude": 0.3546,
        "longitude": 37.5822
      },
      "geometry": {
        "type": "Polygon",
        "coordinates": [
          [
            [
              37.189416884483784,
              0.8008296705865738
            ],
            [
              37.80806708213074,
              1.3412676699158708
            ],
            [
              38.76751455100774,
              1.1436959316342836
            ],
            [
              38.95243567694312,
              0.8150077601422481
            ],
            [
              38.8354931204461,
              0.5162237265272445
            ],
            [
              38.71072717335346,
              0.4614185620374716
            ],
            [
              37.17872939058902,
              0.09519009434450076
            ],
            [
              37.189416884483784,
              0.8008296705865738
            ]
          ]
        ]
      }
    },
    {
      "type": "Feature",
      "id": "012",
      "properties": {
        "county_code": "012",
        "county_name": "Meru",
        "asal_category": "Semi-Arid",
        "latitude": 0.0463,
        "longitude": 37.6559
      },
      "geometry": {
        "type": "Polygon",
        "coordinates": [
          [
            [
              37.21216156227022,
              -0.05084620402228329
            ],
            [
              37.15627261910163,
              0.03402973604270371
            ],
            [
              37.17872939058902,
              0.09519009434450076
            ],
            [
              38.71072717335346,
              0.4614185620374716
            ],
            [
              37.56359450082816,
              -0.24848868104116933
            ],
            [
              37.43774320813606,
              -0.20606520581794607
            ],
            [
              37.21216156227022,
              -0.05084620402228329
            ]
          ]
        ]
      }
    },
    {
      "type": "Feature",
      "id": "013",
      "properties": {
        "county_code": "013",
        "county_name": "Tharaka-Nithi",
        "asal_category": "Semi-Arid",
        "latitude": -0.2974,
        "longitude": 37.8686
      },
      "geometry": {
        "type": "Polygon",
        "coordinates": [
          [
            [
              38.71072717335346,
              0.4614185620374716
            ],
            [
              38.8354931204461,
              0.5162237265272445
            ],
            [
              38.72605617462311,
              -0.7323267946560723
            ],
            [
              37.91194454771753,
              -0.8396456314742946
            ],
            [
              37.56359450082816,
              -0.24848868104116933
            ],
            [
              38.71072717335346,
              0.4614185620374716
            ]
          ]
        ]
      }
    },
    {
      "type": "Feature",
      "id": "014",
      "properties": {
        "county_code": "014",
        "county_name": "Embu",
        "asal_category": "Semi-Arid",
        "latitude": -0.539,
        "longitude": 37.4586
      },
      "geometry": {
        "type": "Polygon",
        "coordinates": [
          [
            [
              37.33427356098401,
              -0.6799031284168052
            ],
            [
              37.43774320813606,
              -0.20606520581794607
            ],
            [
              37.56359450082816,
              -0.24848868104116933
            ],
            [
              37.91194454771753,
              -0.8396456314742946
            ],
            [
              37.56476844792203,
              -1.0689912598696028
            ],
            [
              37.55748416259264,
              -1.0675384219250876
            ],
            [
              37.33427356098401,
              -0.6799031284168052
            ]
          ]
        ]
      }
    },
    {
      "type": "Feature",
      "id": "015",
      "properties": {
        "county_code": "015",
        "county_name": "Kitui",
        "asal_category": "Arid",
        "latitude": -1.3746,
        "longitude": 38.0106
      },
      "geometry": {
        "type": "Polygon",
        "coordinates": [
          [
            [
              38.72605617462311,
              -0.7323267946560723
            ],
            [
              38.92940864789894,
              -1.0932807452124123
            ],
            [
              38.85201075909054,
              -2.1977128204416405
            ],
            [
              38.56232976890701,
              -2.268495546036833
            ],
            [
              37.63252076233518,
              -1.4227615556733262
            ],
            [
              37.56476844792203,
              -1.0689912598696028
            ],
            [
              37.91194454771753,
              -0.8396456314742946
            ],
            [
              38.72605617462311,
              -0.7323267946560723
            ]
          ]
        ]
      }
    },
    {
      "type": "Feature",
      "id": "016",
      "properties": {
        "county_code": "016",
        "county_name": "Machakos",
        "asal_category": "Semi-Arid",
        "latitude": -1.5177,
        "longitude": 37.2634
      },
      "geometry": {
        "type": "Polygon",
        "coordinates": [
          [
            [
              37.56476844792203,
              -1.0689912598696028
            ],
            [
              37.63252076233518,
              -1.4227615556733262
            ],
            [
              37.24475250173089,
              -1.9066583815812694
            ],
            [
              36.921936517753124,
              -1.641136712819127
            ],
            [
              37.11455088998235,
              -1.264189703336853
            ],
            [
              37.23701139275165,
              -1.1129087241722389
            ],
            [
              37.55748416259264,
              -1.0675384219250876
            ],
            [
              37.56476844792203,
              -1.0689912598696028
            ]
          ]
        ]
      }
    },
    {
      "type": "Feature",
      "id": "017",
      "properties": {
        "county_code": "017",
        "county_name": "Makueni",
        "asal_category": "Semi-Arid",
        "latitude": -1.8037,
        "longitude": 37.6203
      },
      "geometry": {
        "type": "Polygon",
        "coordinates": [
          [
            [
              37.63252076233518,
              -1.4227615556733262
            ],
            [
              38.56232976890701,
              -2.268495546036833
            ],
            [
              37.497577096131856,
              -2.8772575376717677
            ],
            [
              37.24475250173089,
              -1.9066583815812694
            ],
            [
              37.63252076233518,
              -1.4227615556733262
            ]
          ]
        ]
      }
    },
    {
      "type": "Feature",
      "id": "018",
      "properties": {
        "county_code": "018",
        "county_name": "Nyandarua",
        "asal_category": "Non-ASAL",
        "latitude": -0.1804,
        "longitude": 36.523
      },
      "geometry": {
        "type": "Polygon",
        "coordinates": [
          [
            [
              36.48942108931955,
              -0.7357952043175675
            ],
            [
              36.442442697770794,
              -0.7506140188464678
            ],
            [
              36.202439235342524,
              0.11590214949683031
            ],
            [
              36.34832454172896,
              0.23818028109660289
            ],
            [
              36.892971994076746,
              -0.020952842365519142
            ],
            [
              36.48942108931955,
              -0.7357952043175675
            ]
          ]
        ]
      }
    },
    {
      "type": "Feature",
      "id": "019",
      "properties": {
        "county_code": "019",
        "county_name": "Nyeri",
        "asal_category": "Semi-Arid",
        "latitude": -0.4201,
        "longitude": 36.9476
      },
      "geometry": {
        "type": "Polygon",
        "coordinates": [
          [
            [
              36.74718607724147,
              -0.7742215035951614
            ],
            [
              36.48942108931955,
              -0.7357952043175675
            ],
            [
              36.892971994076746,
              -0.020952842365519142
            ],
            [
              37.15627261910163,
              0.03402973604270371
            ],
            [
              37.21216156227022,
              -0.05084620402228329
            ],
            [
              37.09539929545799,
              -0.536600615641616
            ],
            [
              36.74718607724147,
              -0.7742215035951614
            ]
          ]
        ]
      }
    },
    {
      "type": "Feature",
      "id": "020",
      "properties": {
        "county_code": "020",
        "county_name": "Kirinyaga",
        "asal_category": "Non-ASAL",
        "latitude": -0.5,
        "longitude": 37.28
      },
      "geometry": {
        "type": "Polygon",
        "coordinates": [
          [
            [
              37.09539929545799,
              -0.536600615641616
            ],
            [
              37.21216156227022,
              -0.05084620402228329
            ],
            [
              37.43774320813606,
              -0.20606520581794607
            ],
            [
              37.33427356098401,
              -0.6799031284168052
            ],
            [
              37.09539929545799,
              -0.536600615641616
            ]
          ]
        ]
      }
    },
    {
      "type": "Feature",
      "id": "021",
      "properties": {
        "county_code": "021",
        "county_name": "Murang'a",
        "asal_category": "Non-ASAL",
        "latitude": -0.7167,
        "longitude": 37.15
      },
      "geometry": {
        "type": "Polygon",
        "coordinates": [
          [
            [
              37.23701139275165,
              -1.1129087241722389
            ],
            [
              36.74718607724147,
              -0.7742215035951614
            ],
            [
              37.09539929545799,
              -0.536600615641616
            ],
            [
              37.33427356098401,
              -0.6799031284168052
            ],
            [
              37.55748416259264,
              -1.0675384219250876
            ],
            [
              37.23701139275165,
              -1.1129087241722389
            ]
          ]
        ]
      }
    },
    {
      "type": "Feature",
      "id": "022",
      "properties": {
        "county_code": "022",
        "county_name": "Kiambu",
        "asal_category": "Non-ASAL",
        "latitude": -1.1714,
        "longitude": 36.8356
      },
      "geometry": {
        "type": "Polygon",
        "coordinates": [
          [
            [
              37.11455088998235,
              -1.264189703336853
            ],
            [
              36.34663292999259,
              -1.1770275156661012
            ],
            [
              36.38050490677103,
              -0.8045126654886682
            ],
            [
              36.442442697770794,
              -0.7506140188464678
            ],
            [
              36.48942108931955,
              -0.7357952043175675
            ],
            [
              36.74718607724147,
              -0.7742215035951614
            ],
            [
              37.23701139275165,
              -1.1129087241722389
            ],
            [
              37.11455088998235,
              -1.264189703336853
            ]
          ]
        ]
      }
    },
    {
      "type": "Feature",
      "id": "023",
      "properties": {
        "county_code": "023",
        "county_name": "Turkana",
        "asal_category": "Arid",
        "latitude": 3.1167,
        "longitude": 35.6
      },
      "geometry": {
        "type": "Polygon",
        "coordinates": [
          [
            [
              36.728812151962025,
              2.523294598679183
            ],
            [
              36.06119802574498,
              2.094121752769045
            ],
            [
              33.8,
              2.7654800313306307
            ],
            [
              33.8,
              5.45
            ],
            [
              37.683566532797855,
              5.45
            ],
            [
              36.728812151962025,
              2.523294598679183
            ]
          ]
        ]
      }
    },
    {
      "type": "Feature",
      "id": "024",
      "properties": {
        "county_code": "024",
        "county_name": "West Pokot",
        "asal_category": "Semi-Arid",
        "latitude": 1.4889,
        "longitude": 35.1167
      },
      "geometry": {
        "type": "Polygon",
        "coordinates": [
          [
            [
              36.06119802574498,
              2.094121752769045
            ],
            [
              35.979407570303024,
              1.5178225746801406
            ],
            [
              35.331827838566916,
              1.157512934421104
            ],
            [
              33.83953686439739,
              1.7321604405288844
            ],
            [
              33.8,
              1.77081665693999
            ],
            [
              33.8,
              2.7654800313306307
            ],
            [
              36.06119802574498,
              2.094121752769045
            ]
          ]
        ]
      }
    },
    {
      "type": "Feature",
      "id": "025",
      "properties": {
        "county_code": "025",
        "county_name": "Samburu",
        "asal_category": "Arid",
        "latitude": 1.25,
        "longitude": 36.8
      },
      "geometry": {
        "type": "Polygon",
        "coordinates": [
          [
            [
              36.06119802574498,
              2.094121752769045
            ],
            [
              36.728812151962025,
              2.523294598679183
            ],
            [
              37.80806708213074,
              1.3412676699158708
            ],
            [
              37.189416884483784,
              0.8008296705865738
            ],
            [
              36.43071184434981,
              0.8151740316985828
            ],
            [
              36.097131570227994,
              1.177731019341348
            ],
            [
              35.979407570303024,
              1.5178225746801406
            ],
            [
              36.06119802574498,
              2.094121752769045
            ]
          ]
        ]
      }
    },
    {
      "type": "Feature",
      "id": "026",
      "properties": {
        "county_code": "026",
        "county_name": "Trans Nzoia",
        "asal_category": "Non-ASAL",
        "latitude": 1.056,
        "longitude": 34.95
      },
      "geometry": {
        "type": "Polygon",
        "coordinates": [
          [
            [
              35.17692837454447,
              0.8247211171853813
            ],
            [
              34.92448086505753,
              0.6756852790204921
            ],
            [
              34.142876556847916,
              1.3048245330695951
            ],
            [
              33.83953686439739,
              1.7321604405288844
            ],
            [
              35.331827838566916,
              1.157512934421104
            ],
            [
              35.17692837454447,
              0.8247211171853813
            ]
          ]
        ]
      }
    },
    {
      "type": "Feature",
      "id": "027",
      "properties": {
        "county_code": "027",
        "county_name": "Uasin Gishu",
        "asal_category": "Non-ASAL",
        "latitude": 0.5143,
        "longitude": 35.2698
      },
      "geometry": {
        "type": "Polygon",
        "coordinates": [
          [
            [
              34.918923549808966,
              0.6040643719945427
            ],
            [
              34.92448086505753,
              0.6756852790204921
            ],
            [
              35.17692837454447,
              0.8247211171853813
            ],
            [
              35.6169758865898,
              0.4701571085300217
            ],
            [
              35.6020583624194,
              0.13480154097035493
            ],
            [
              34.98787747613498,
              0.449870769040117
            ],
            [
              34.918923549808966,
              0.6040643719945427
            ]
          ]
        ]
      }
    },
    {
      "type": "Feature",
      "id": "028",
      "properties": {
        "county_code": "028",
        "county_name": "Elgeyo-Marakwet",
        "asal_category": "Semi-Arid",
        "latitude": 0.8,
        "longitude": 35.5
      },
      "geometry": {
        "type": "Polygon",
        "coordinates": [
          [
            [
              35.979407570303024,
              1.5178225746801406
            ],
            [
              36.097131570227994,
              1.177731019341348
            ],
            [
              35.6169758865898,
              0.4701571085300217
            ],
            [
              35.17692837454447,
              0.8247211171853813
            ],
            [
              35.331827838566916,
              1.157512934421104
            ],
            [
              35.979407570303024,
              1.5178225746801406
            ]
          ]
        ]
      }
    },
    {
      "type": "Feature",
      "id": "029",
      "properties": {
        "county_code": "029",
        "county_name": "Nandi",
        "asal_category": "Non-ASAL",
        "latitude": 0.1833,
        "longitude": 35.1
      },
      "geometry": {
        "type": "Polygon",
        "coordinates": [
          [
            [
              35.6020583624194,
              0.13480154097035493
            ],
            [
              35.62984337692996,
              0.054530634049348076
            ],
            [
              35.080331774440886,
              -0.13086236041590443
            ],
            [
              34.929880588927745,
              0.05077325263995902
            ],
            [
              34.9031605623891,
              0.15319111436261074
            ],
            [
              34.98787747613498,
              0.449870769040117
            ],
            [
              35.6020583624194,
              0.13480154097035493
            ]
          ]
        ]
      }
    },
    {
      "type": "Feature",
      "id": "030",
      "properties": {
        "county_code": "030",
        "county_name": "Baringo",
        "asal_category": "Arid",
        "latitude": 0.4833,
        "longitude": 35.9667
      },
      "geometry": {
        "type": "Polygon",
        "coordinates": [
          [
            [
              36.202439235342524,
              0.11590214949683031
            ],
            [
              35.65225748286606,
              0.03663511928881813
            ],
            [
              35.62984337692996,
              0.054530634049348076
            ],
            [
              35.6020583624194,
              0.13480154097035493
            ],
            [
              35.6169758865898,
              0.4701571085300217
            ],
            [
              36.097131570227994,
              1.177731019341348
            ],
            [
              36.43071184434981,
              0.8151740316985828
            ],
            [
              36.34832454172896,
              0.23818028109660289
            ],
            [
              36.202439235342524,
              0.11590214949683031
            ]
          ]
        ]
      }
    },
    {
      "type": "Feature",
      "id": "031",
      "properties": {
        "county_code": "031",
        "county_name": "Laikipia",
        "asal_category": "Semi-Arid",
        "latitude": 0.3667,
        "longitude": 36.7833
      },
      "geometry": {
        "type": "Polygon",
        "coordinates": [
          [
            [
              36.892971994076746,
              -0.020952842365519142
            ],
            [
              36.34832454172896,
              0.23818028109660289
            ],
            [
              36.43071184434981,
              0.8151740316985828
            ],
            [
              37.189416884483784,
              0.8008296705865738
            ],
            [
              37.17872939058902,
              0.09519009434450076
            ],
            [
              37.15627261910163,
              0.03402973604270371
            ],
            [
              36.892971994076746,
              -0.020952842365519142
            ]
          ]
        ]
      }
    },
    {
      "type": "Feature",
      "id": "032",
      "properties": {
        "county_code": "032",
        "county_name": "Nakuru",
        "asal_category": "Semi-Arid",
        "latitude": -0.3031,
        "longitude": 36.08
      },
      "geometry": {
        "type": "Polygon",
        "coordinates": [
          [
            [
              36.38050490677103,
              -0.8045126654886682
            ],
            [
              35.773142850827426,
              -0.6384650795712521
            ],
            [
              35.698694978324006,
              -0.5235083479599453
            ],
            [
              35.65225748286606,
              0.03663511928881813
            ],
            [
              36.202439235342524,
              0.11590214949683031
            ],
            [
              36.442442697770794,
              -0.7506140188464678
            ],
            [
              36.38050490677103,
              -0.8045126654886682
            ]
          ]
        ]
      }
    },
    {
      "type": "Feature",
      "id": "033",
      "properties": {
        "county_code": "033",
        "county_name": "Narok",
        "asal_category": "Semi-Arid",
        "latitude": -1.0833,
        "longitude": 35.8667
      },
      "geometry": {
        "type": "Polygon",
        "coordinates": [
          [
            [
              36.235688489349876,
              -1.6845664510200973
            ],
            [
              35.14416934991025,
              -2.875271304777736
            ],
            [
              35.16090913861027,
              -1.7029813785289631
            ],
            [
              35.773142850827426,
              -0.6384650795712521
            ],
            [
              36.38050490677103,
              -0.8045126654886682
            ],
            [
              36.34663292999259,
              -1.1770275156661012
            ],
            [
              36.235688489349876,
              -1.6845664510200973
            ]
          ]
        ]
      }
    },
    {
      "type": "Feature",
      "id": "034",
      "properties": {
        "county_code": "034",
        "county_name": "Kajiado",
        "asal_category": "Semi-Arid",
        "latitude": -2.0,
        "longitude": 36.8667
      },
      "geometry": {
        "type": "Polygon",
        "coordinates": [
          [
            [
              35.14416934991025,
              -2.875271304777736
            ],
            [
              36.235688489349876,
              -1.6845664510200973
            ],
            [
              36.921936517753124,
              -1.641136712819127
            ],
            [
              37.24475250173089,
              -1.9066583815812694
            ],
            [
              37.497577096131856,
              -2.8772575376717677
            ],
            [
              35.933885966755234,
              -4.8
            ],
            [
              34.39103561998663,
              -4.8
            ],
            [
              35.14416934991025,
              -2.875271304777736
            ]
          ]
        ]
      }
    },
    {
      "type": "Feature",
      "id": "035",
      "properties": {
        "county_code": "035",
        "county_name": "Kericho",
        "asal_category": "Non-ASAL",
        "latitude": -0.3689,
        "longitude": 35.2863
      },
      "geometry": {
        "type": "Polygon",
        "coordinates": [
          [
            [
              35.080331774440886,
              -0.13086236041590443
            ],
            [
              35.62984337692996,
              0.054530634049348076
            ],
            [
              35.65225748286606,
              0.03663511928881813
            ],
            [
              35.698694978324006,
              -0.5235083479599453
            ],
            [
              35.18136600558724,
              -0.5928786006086942
            ],
            [
              35.004134651861605,
              -0.2733333872299042
            ],
            [
              35.080331774440886,
              -0.13086236041590443
            ]
          ]
        ]
      }
    },
    {
      "type": "Feature",
      "id": "036",
      "properties": {
        "county_code": "036",
        "county_name": "Bomet",
        "asal_category": "Non-ASAL",
        "latitude": -0.7813,
        "longitude": 35.3416
      },
      "geometry": {
        "type": "Polygon",
        "coordinates": [
          [
            [
              35.18136600558724,
              -0.5928786006086942
            ],
            [
              35.698694978324006,
              -0.5235083479599453
            ],
            [
              35.773142850827426,
              -0.6384650795712521
            ],
            [
              35.16090913861027,
              -1.7029813785289631
            ],
            [
              34.9815233818494,
              -1.1507072567749075
            ],
            [
              35.02904219140338,
              -0.8764244895803253
            ],
            [
              35.18136600558724,
              -0.5928786006086942
            ]
          ]
        ]
      }
    },
    {
      "type": "Feature",
      "id": "037",
      "properties": {
        "county_code": "037",
        "county_name": "Kakamega",
        "asal_category": "Non-ASAL",
        "latitude": 0.2827,
        "longitude": 34.7519
      },
      "geometry": {
        "type": "Polygon",
        "coordinates": [
          [
            [
              34.9031605623891,
              0.15319111436261074
            ],
            [
              34.49436166753183,
              0.22535621515987345
            ],
            [
              34.46097479460762,
              0.2950926700020059
            ],
            [
              34.918923549808966,
              0.6040643719945427
            ],
            [
              34.98787747613498,
              0.449870769040117
            ],
            [
              34.9031605623891,
              0.15319111436261074
            ]
          ]
        ]
      }
    },
    {
      "type": "Feature",
      "id": "038",
      "properties": {
        "county_code": "038",
        "county_name": "Vihiga",
        "asal_category": "Non-ASAL",
        "latitude": 0.0833,
        "longitude": 34.7167
      },
      "geometry": {
        "type": "Polygon",
        "coordinates": [
          [
            [
              34.9031605623891,
              0.15319111436261074
            ],
            [
              34.929880588927745,
              0.05077325263995902
            ],
            [
              34.51006037434495,
              -0.07229404454916265
            ],
            [
              34.49436166753183,
              0.22535621515987345
            ],
            [
              34.9031605623891,
              0.15319111436261074
            ]
          ]
        ]
      }
    },
    {
      "type": "Feature",
      "id": "039",
      "properties": {
        "county_code": "039",
        "county_name": "Bungoma",
        "asal_category": "Non-ASAL",
        "latitude": 0.5695,
        "longitude": 34.5584
      },
      "geometry": {
        "type": "Polygon",
        "coordinates": [
          [
            [
              34.46097479460762,
              0.2950926700020059
            ],
            [
              34.37772101036513,
              0.3393048801087698
            ],
            [
              34.142876556847916,
              1.3048245330695951
            ],
            [
              34.92448086505753,
              0.6756852790204921
            ],
            [
              34.918923549808966,
              0.6040643719945427
            ],
            [
              34.46097479460762,
              0.2950926700020059
            ]
          ]
        ]
      }
    },
    {
      "type": "Feature",
      "id": "040",
      "properties": {
        "county_code": "040",
        "county_name": "Busia",
        "asal_category": "Non-ASAL",
        "latitude": 0.4608,
        "longitude": 34.1115
      },
      "geometry": {
        "type": "Polygon",
        "coordinates": [
          [
            [
              33.83953686439739,
              1.7321604405288844
            ],
            [
              34.142876556847916,
              1.3048245330695951
            ],
            [
              34.37772101036513,
              0.3393048801087698
            ],
            [
              33.8,
              0.08416040989752012
            ],
            [
              33.8,
              1.77081665693999
            ],
            [
              33.83953686439739,
              1.7321604405288844
            ]
          ]
        ]
      }
    },
    {
      "type": "Feature",
      "id": "041",
      "properties": {
        "county_code": "041",
        "county_name": "Siaya",
        "asal_category": "Non-ASAL",
        "latitude": 0.0607,
        "longitude": 34.2882
      },
      "geometry": {
        "type": "Polygon",
        "coordinates": [
          [
            [
              34.51006037434495,
              -0.07229404454916265
            ],
            [
              34.467581016696805,
              -0.20603154979576632
            ],
            [
              33.8,
              -0.3977907908163213
            ],
            [
              33.8,
              0.08416040989752012
            ],
            [
              34.37772101036513,
              0.3393048801087698
            ],
            [
              34.46097479460762,
              0.2950926700020059
            ],
            [
              34.49436166753183,
              0.22535621515987345
            ],
            [
              34.51006037434495,
              -0.07229404454916265
            ]
          ]
        ]
      }
    },
    {
      "type": "Feature",
      "id": "042",
      "properties": {
        "county_code": "042",
        "county_name": "Kisumu",
        "asal_category": "Non-ASAL",
        "latitude": -0.0917,
        "longitude": 34.768
      },
      "geometry": {
        "type": "Polygon",
        "coordinates": [
          [
            [
              34.929880588927745,
              0.05077325263995902
            ],
            [
              35.080331774440886,
              -0.13086236041590443
            ],
            [
              35.004134651861605,
              -0.2733333872299042
            ],
            [
              34.70900576528263,
              -0.3783431988667826
            ],
            [
              34.467581016696805,
              -0.20603154979576632
            ],
            [
              34.51006037434495,
              -0.07229404454916265
            ],
            [
              34.929880588927745,
              0.05077325263995902
            ]
          ]
        ]
      }
    },
    {
      "type": "Feature",
      "id": "043",
      "properties": {
        "county_code": "043",
        "county_name": "Homa Bay",
        "asal_category": "Semi-Arid",
        "latitude": -0.5273,
        "longitude": 34.4571
      },
      "geometry": {
        "type": "Polygon",
        "coordinates": [
          [
            [
              34.467581016696805,
              -0.20603154979576632
            ],
            [
              34.70900576528263,
              -0.3783431988667826
            ],
            [
              34.70622131451456,
              -0.41536865949671614
            ],
            [
              34.517501522022165,
              -0.7937860672405241
            ],
            [
              33.8,
              -0.815200027979861
            ],
            [
              33.8,
              -0.3977907908163213
            ],
            [
              34.467581016696805,
              -0.20603154979576632
            ]
          ]
        ]
      }
    },
    {
      "type": "Feature",
      "id": "044",
      "properties": {
        "county_code": "044",
        "county_name": "Migori",
        "asal_category": "Semi-Arid",
        "latitude": -1.0634,
        "longitude": 34.4731
      },
      "geometry": {
        "type": "Polygon",
        "coordinates": [
          [
            [
              35.16090913861027,
              -1.7029813785289631
            ],
            [
              35.14416934991025,
              -2.875271304777736
            ],
            [
              34.39103561998663,
              -4.8
            ],
            [
              33.8,
              -4.8
            ],
            [
              33.8,
              -0.815200027979861
            ],
            [
              34.517501522022165,
              -0.7937860672405241
            ],
            [
              34.9815233818494,
              -1.1507072567749075
            ],
            [
              35.16090913861027,
              -1.7029813785289631
            ]
          ]
        ]
      }
    },
    {
      "type": "Feature",
      "id": "045",
      "properties": {
        "county_code": "045",
        "county_name": "Kisii",
        "asal_category": "Non-ASAL",
        "latitude": -0.6817,
        "longitude": 34.7667
      },
      "geometry": {
        "type": "Polygon",
        "coordinates": [
          [
            [
              34.9815233818494,
              -1.1507072567749075
            ],
            [
              34.517501522022165,
              -0.7937860672405241
            ],
            [
              34.70622131451456,
              -0.41536865949671614
            ],
            [
              35.02904219140338,
              -0.8764244895803253
            ],
            [
              34.9815233818494,
              -1.1507072567749075
            ]
          ]
        ]
      }
    },
    {
      "type": "Feature",
      "id": "046",
      "properties": {
        "county_code": "046",
        "county_name": "Nyamira",
        "asal_category": "Non-ASAL",
        "latitude": -0.5633,
        "longitude": 34.9358
      },
      "geometry": {
        "type": "Polygon",
        "coordinates": [
          [
            [
              35.004134651861605,
              -0.2733333872299042
            ],
            [
              35.18136600558724,
              -0.5928786006086942
            ],
            [
              35.02904219140338,
              -0.8764244895803253
            ],
            [
              34.70622131451456,
              -0.41536865949671614
            ],
            [
              34.70900576528263,
              -0.3783431988667826
            ],
            [
              35.004134651861605,
              -0.2733333872299042
            ]
          ]
        ]
      }
    },
    {
      "type": "Feature",
      "id": "047",
      "properties": {
        "county_code": "047",
        "county_name": "Nairobi",
        "asal_category": "Non-ASAL",
        "latitude": -1.2921,
        "longitude": 36.8219
      },
      "geometry": {
        "type": "Polygon",
        "coordinates": [
          [
            [
              37.11455088998235,
              -1.264189703336853
            ],
            [
              36.921936517753124,
              -1.641136712819127
            ],
            [
              36.235688489349876,
              -1.6845664510200973
            ],
            [
              36.34663292999259,
              -1.1770275156661012
            ],
            [
              37.11455088998235,
              -1.264189703336853
            ]
          ]
        ]
      }
    }
  ]
}